NORAD_CAT_ID,OBJECT_NAME,OBJECT_TYPE,EPOCH,MEAN_MOTION,ECCENTRICITY,INCLINATION,RA_OF_ASC_NODE,ARG_OF_PERICENTER,MEAN_ANOMALY,BSTAR,MEAN_MOTION_DOT,MEAN_MOTION_DDOT,TLE_LINE0,TLE_LINE1,TLE_LINE2,SEMIMAJOR_AXIS,PERIOD,APOGEE,PERIGEE,DECAYED
53168.0,STARLINK-4105,PAYLOAD,2023-02-07 16:12:27,15.08846806,0.0001254,53.216,178.9965,102.0474,258.0659,0.00015581,2.193e-05,0.0,0 STARLINK-4105,1 53168U 22083AN  23038.67531947  .00002193  00000-0  15581-3 0  9994,2 53168  53.2160 178.9965 0001254 102.0474 258.0659 15.08846806 32003,6917.86,95.437,540.592,538.857,0.0
53168.0,STARLINK-4105,PAYLOAD,2023-02-08 09:41:42,15.08831629,8.49e-05,53.216,175.7254,98.4432,261.6657,-0.00023663,-4.051e-05,0.0,0 STARLINK-4105,1 53168U 22083AN  23039.40396726 -.00004051  00000-0 -23663-3 0  9997,2 53168  53.2160 175.7254 0000849  98.4432 261.6657 15.08831629 32117,6917.906,95.438,540.358,539.184,0.0
53168.0,STARLINK-4105,PAYLOAD,2023-02-08 12:52:28,15.08842548,0.0001192,53.2161,175.13,115.1757,244.9358,-6.6591e-05,-1.348e-05,0.0,0 STARLINK-4105,1 53168U 22083AN  23039.53644183 -.00001348  00000-0 -66591-4 0  9998,2 53168  53.2161 175.1300 0001192 115.1757 244.9358 15.08842548 31509,6917.873,95.437,540.562,538.913,0.0
53168.0,STARLINK-4105,PAYLOAD,2023-02-08 16:03:14,15.08845061,0.0001038,53.216,174.536,106.8816,253.229,-2.741e-05,-7.24e-06,0.0,0 STARLINK-4105,1 53168U 22083AN  23039.66892059 -.00000724  00000-0 -27410-4 0  9993,2 53168  53.2160 174.5360 0001038 106.8816 253.2290 15.08845061 32152,6917.865,95.437,540.448,539.012,0.0
53168.0,STARLINK-4105,PAYLOAD,2023-02-09 09:32:29,15.0883616,0.0001174,53.2167,171.2658,111.0788,249.033,-4.7818e-05,-1.049e-05,0.0,0 STARLINK-4105,1 53168U 22083AN  23040.39756672 -.00001049  00000-0 -47818-4 0  9990,2 53168  53.2167 171.2658 0001174 111.0788 249.0330 15.08836160 31630,6917.892,95.438,540.569,538.945,0.0
53168.0,STARLINK-4105,PAYLOAD,2023-02-09 20:40:10,15.08858339,9.26e-05,53.2153,169.1817,107.2791,252.8303,0.00029182,4.362e-05,0.0,0 STARLINK-4105,1 53168U 22083AN  23040.86123565  .00004362  00000-0  29182-3 0  9993,2 53168  53.2153 169.1817 0000926 107.2791 252.8303 15.08858339 32335,6917.824,95.436,540.33,539.049,0.0
53168.0,STARLINK-4105,PAYLOAD,2023-02-10 01:26:21,15.08817004,6.5e-05,53.2163,168.2908,126.8004,233.3048,-0.00027303,-4.627e-05,0.0,0 STARLINK-4105,1 53168U 22083AN  23041.05997429 -.00004627  00000-0 -27303-3 0  9992,2 53168  53.2163 168.2908 0000650 126.8004 233.3048 15.08817004 31732,6917.951,95.439,540.265,539.366,0.0
53168.0,STARLINK-4105,PAYLOAD,2023-02-10 14:09:26,15.0884201,0.0001325,53.2162,165.9147,131.6992,228.4113,0.0001853,2.663e-05,0.0,0 STARLINK-4105,1 53168U 22083AN  23041.58988625  .00002663  00000-0  18530-3 0  9996,2 53168  53.2162 165.9147 0001325 131.6992 228.4113 15.08842010 32442,6917.874,95.437,540.656,538.823,0.0
53168.0,STARLINK-4105,PAYLOAD,2023-02-10 20:30:58,15.08861631,7.92e-05,53.2142,164.7205,152.5339,207.5695,0.0008422,0.00013149,0.0,0 STARLINK-4105,1 53168U 22083AN  23041.85484038  .00013149  00000-0  84220-3 0  9995,2 53168  53.2142 164.7205 0000792 152.5339 207.5695 15.08861631 31853,6917.814,95.436,540.227,539.131,0.0
53168.0,STARLINK-4105,PAYLOAD,2023-02-11 01:17:08,15.08821185,9.13e-05,53.2141,163.8305,109.3722,250.7368,-0.0003329,-5.579e-05,0.0,0 STARLINK-4105,1 53168U 22083AN  23042.05357443 -.00005579  00000-0 -33290-3 0  9998,2 53168  53.2141 163.8305 0000913 109.3722 250.7368 15.08821185 32515,6917.938,95.439,540.435,539.171,0.0
53168.0,STARLINK-4105,PAYLOAD,2023-02-11 10:49:27,15.08831172,4.1e-05,53.2135,162.0456,173.2763,186.8235,9.584e-05,1.238e-05,0.0,0 STARLINK-4105,1 53168U 22083AN  23042.45101289  .00001238  00000-0  95840-4 0  9993,2 53168  53.2135 162.0456 0000410 173.2763 186.8235 15.08831172 32578,6917.907,95.438,540.056,539.489,0.0
53168.0,STARLINK-4105,PAYLOAD,2023-02-11 12:24:50,15.0885015,8.71e-05,53.2132,161.7493,107.6294,252.4793,0.00087124,0.00013609,0.0,0 STARLINK-4105,1 53168U 22083AN  23042.51725139  .00013609  00000-0  87124-3 0  9996,2 53168  53.2132 161.7493 0000871 107.6294 252.4793 15.08850150 31950,6917.849,95.437,540.317,539.112,0.0
53168.0,STARLINK-4105,PAYLOAD,2023-02-11 17:10:59,15.08876358,0.0001016,53.2138,160.8578,94.7278,265.383,0.0034843,0.00055658,0.0,0 STARLINK-4105,1 53168U 22083AN  23042.71597055  .00055658  00000-0  34843-2 0  9991,2 53168  53.2138 160.8578 0001016  94.7278 265.3830 15.08876358 32617,6917.769,95.435,540.337,538.931,0.0
53168.0,STARLINK-4105,PAYLOAD,2023-02-11 18:46:22,15.0888326,0.0001018,53.2139,160.5603,95.0343,265.0765,0.0031299,0.00049937,0.0,0 STARLINK-4105,1 53168U 22083AN  23042.78220861  .00049937  00000-0  31299-2 0  9991,2 53168  53.2139 160.5603 0001018  95.0343 265.0765 15.08883260 31997,6917.748,95.435,540.317,538.909,0.0
53168.0,STARLINK-4105,PAYLOAD,2023-02-12 13:51:01,15.08865951,0.0001523,53.2142,156.9929,73.4854,286.6306,0.0034791,0.00055558,0.0,0 STARLINK-4105,1 53168U 22083AN  23043.57709689  .00055558  00000-0  34791-2 0  9995,2 53168  53.2142 156.9929 0001523  73.4854 286.6306 15.08865951 32111,6917.801,95.436,540.72,538.612,0.0
53168.0,STARLINK-4105,PAYLOAD,2023-02-12 18:37:10,15.08883602,0.0001058,53.2142,156.1008,59.7084,300.4012,0.0038022,0.00060819,0.0,0 STARLINK-4105,1 53168U 22083AN  23043.77581289  .00060819  00000-0  38022-2 0  9998,2 53168  53.2142 156.1008 0001058  59.7084 300.4012 15.08883602 32770,6917.747,95.435,540.344,538.88,0.0
53168.0,STARLINK-4105,PAYLOAD,2023-02-13 00:58:43,15.08843278,0.0001243,53.2144,154.9099,82.2708,277.8425,0.003116,0.00049657,0.0,0 STARLINK-4105,1 53168U 22083AN  23044.04077672  .00049657  00000-0  31160-2 0  9998,2 53168  53.2144 154.9099 0001243  82.2708 277.8425 15.08843278 32813,6917.87,95.437,540.595,538.875,0.0
53168.0,STARLINK-4105,PAYLOAD,2023-02-13 13:41:48,15.08862071,0.0001244,53.2143,152.5318,80.1446,279.9687,0.0030315,0.00048319,0.0,0 STARLINK-4105,1 53168U 22083AN  23044.57069620  .00048319  00000-0  30315-2 0  9995,2 53168  53.2143 152.5318 0001244  80.1446 279.9687 15.08862071 32261,6917.813,95.436,540.539,538.817,0.0
53168.0,STARLINK-4105,PAYLOAD,2023-02-13 18:27:57,15.08870162,0.0001424,53.2143,151.6389,80.4163,279.699,0.0021592,0.00034272,0.0,0 STARLINK-4105,1 53168U 22083AN  23044.76941300  .00034272  00000-0  21592-2 0  9990,2 53168  53.2143 151.6389 0001424  80.4163 279.6990 15.08870162 32925,6917.788,95.436,540.638,538.668,0.0
53168.0,STARLINK-4105,PAYLOAD,2023-02-14 13:32:35,15.08850622,6.4e-05,53.2153,148.0729,97.4424,262.664,0.0019688,0.00031194,0.0,0 STARLINK-4105,1 53168U 22083AN  23045.56429656  .00031194  00000-0  19688-2 0  9997,2 53168  53.2153 148.0729 0000640  97.4424 262.6640 15.08850622 32418,6917.848,95.437,540.156,539.27,0.0
53168.0,STARLINK-4105,PAYLOAD,2023-02-14 18:18:44,15.0887429,0.0001159,53.2138,147.1797,96.8951,263.2173,0.0025888,0.00041193,0.0,0 STARLINK-4105,1 53168U 22083AN  23045.76301313  .00041193  00000-0  25888-2 0  9997,2 53168  53.2138 147.1797 0001159  96.8951 263.2173 15.08874290 33078,6917.776,95.435,540.442,538.839,0.0
53168.0,STARLINK-4105,PAYLOAD,2023-02-14 21:29:30,15.08829287,0.0001391,53.2153,146.5848,94.0728,266.0423,0.00011926,1.61e-05,0.0,0 STARLINK-4105,1 53168U 22083AN  23045.89549725  .00001610  00000-0  11926-3 0  9991,2 53168  53.2153 146.5848 0001391  94.0728 266.0423 15.08829287 32462,6917.913,95.438,540.74,538.816,0.0
53168.0,STARLINK-4105,PAYLOAD,2023-02-15 11:47:59,15.08867946,0.0001559,53.2149,143.9073,102.7351,257.3816,0.0032097,0.00051205,0.0,0 STARLINK-4105,1 53168U 22083AN  23046.49165576  .00051205  00000-0  32097-2 0  9992,2 53168  53.2149 143.9073 0001559 102.7351 257.3816 15.08867946 33186,6917.795,95.436,540.738,538.581,0.0
53168.0,STARLINK-4105,PAYLOAD,2023-02-15 13:23:21,15.08887488,0.0001205,53.2149,143.6103,103.0269,257.0857,0.0032295,0.00051553,0.0,0 STARLINK-4105,1 53168U 22083AN  23046.55789194  .00051553  00000-0  32295-2 0  9993,2 53168  53.2149 143.6103 0001205 103.0269 257.0857 15.08887488 32563,6917.735,95.435,540.434,538.767,0.0
53168.0,STARLINK-4105,PAYLOAD,2023-02-15 18:09:30,15.08909728,0.0001128,53.2149,142.7178,110.1264,249.985,0.004092,0.00065568,0.0,0 STARLINK-4105,1 53168U 22083AN  23046.75660527  .00065568  00000-0  40920-2 0  9998,2 53168  53.2149 142.7178 0001128 110.1264 249.9850 15.08909728 33222,6917.667,95.433,540.313,538.752,0.0
53168.0,STARLINK-4105,PAYLOAD,2023-02-16 11:38:44,15.08869305,0.0001099,53.2156,139.4473,114.4451,245.6656,0.001527,0.00024117,0.0,0 STARLINK-4105,1 53168U 22083AN  23047.48524049  .00024117  00000-0  15270-2 0  9992,2 53168  53.2156 139.4473 0001099 114.4451 245.6656 15.08869305 33338,6917.791,95.436,540.416,538.896,0.0
53168.0,STARLINK-4105,PAYLOAD,2023-02-16 13:14:07,15.08868956,0.0001071,53.2153,139.1506,102.5585,257.5527,0.0016681,0.00026381,0.0,0 STARLINK-4105,1 53168U 22083AN  23047.55148043  .00026381  00000-0  16681-2 0  9998,2 53168  53.2153 139.1506 0001071 102.5585 257.5527 15.08868956 32716,6917.792,95.436,540.398,538.916,0.0
53168.0,STARLINK-4105,PAYLOAD,2023-02-16 14:49:30,15.08873737,0.0001166,53.2153,138.8536,100.3628,259.7496,0.0018778,0.00029751,0.0,0 STARLINK-4105,1 53168U 22083AN  23047.61771916  .00029751  00000-0  18778-2 0  9999,2 53168  53.2153 138.8536 0001166 100.3628 259.7496 15.08873737 32727,6917.777,95.435,540.449,538.836,0.0
53168.0,STARLINK-4105,PAYLOAD,2023-02-17 09:54:10,15.08822136,0.000152,53.2156,135.2836,97.5383,262.5782,0.0012289,0.00019314,0.0,0 STARLINK-4105,1 53168U 22083AN  23048.41261933  .00019314  00000-0  12289-2 0  9996,2 53168  53.2156 135.2836 0001520  97.5383 262.5782 15.08822136 32843,6917.935,95.439,540.852,538.748,0.0
53168.0,STARLINK-4105,PAYLOAD,2023-02-17 19:26:29,15.08802344,0.0001783,53.2146,133.4992,101.4524,258.6668,0.001286,0.00020217,0.0,0 STARLINK-4105,1 53168U 22083AN  23048.81006670  .00020217  00000-0  12860-2 0  9994,2 53168  53.2146 133.4992 0001783 101.4524 258.6668 15.08802344 33533,6917.995,95.44,541.094,538.627,0.0
